{
  "type": "FeatureCollection",
  "features": [
    {
      "type": "Feature",
      "properties": {
        "norad_id": 43567,
        "name": "GSAT0220 (GALILEO 24)",
        "group": "gnss",
        "lat": 55.48664278529127,
        "lon": 97.26285560271228,
        "alt_km": 23233.775045680573,
        "timestamp": "2025-12-13T22:39:29.952103+00:00",
        "meta_object_name": "GSAT0220 (GALILEO 24)",
        "meta_object_id": "2018-060D",
        "meta_epoch": "2025-12-10T20:18:00.212256",
        "meta_mean_motion": 1.70475727,
        "meta_eccentricity": 0.0006125,
        "meta_inclination": 57.2305,
        "meta_ra_of_asc_node": 346.8727,
        "meta_arg_of_pericenter": 283.9956,
        "meta_mean_anomaly": 75.9532,
        "meta_ephemeris_type": 0,
        "meta_classification_type": "U",
        "meta_norad_cat_id": 43567,
        "meta_element_set_no": 999,
        "meta_rev_at_epoch": 4596,
        "meta_bstar": 0,
        "meta_mean_motion_dot": -8.7e-07,
        "meta_mean_motion_ddot": 0,
        "tle_line1": "1 43567U 18060D   25344.84583579 -.00000087  00000+0  00000+0 0  9991",
        "tle_line2": "2 43567  57.2305 346.8727 0006125 283.9956  75.9532  1.70475727 45967"
      },
      "geometry": {
        "type": "Point",
        "coordinates": [
          97.26285560271228,
          55.48664278529127
        ]
      }
    },
    {
      "type": "Feature",
      "properties": {
        "norad_id": 43581,
        "name": "BEIDOU-3 M5 (C23)",
        "group": "gnss",
        "lat": 43.451052496153004,
        "lon": -128.03178280278718,
        "alt_km": 21520.440873543394,
        "timestamp": "2025-12-13T22:39:29.952125+00:00",
        "meta_object_name": "BEIDOU-3 M5 (C23)",
        "meta_object_id": "2018-062A",
        "meta_epoch": "2025-12-12T05:55:01.607232",
        "meta_mean_motion": 1.86228672,
        "meta_eccentricity": 0.00021016,
        "meta_inclination": 54.0891,
        "meta_ra_of_asc_node": 188.6597,
        "meta_arg_of_pericenter": 354.1416,
        "meta_mean_anomaly": 5.9159,
        "meta_ephemeris_type": 0,
        "meta_classification_type": "U",
        "meta_norad_cat_id": 43581,
        "meta_element_set_no": 999,
        "meta_rev_at_epoch": 5015,
        "meta_bstar": 0,
        "meta_mean_motion_dot": 7.9e-07,
        "meta_mean_motion_ddot": 0,
        "tle_line1": "1 43581U 18062A   25346.24654638  .00000079  00000+0  00000+0 0  9990",
        "tle_line2": "2 43581  54.0891 188.6597 0002101 354.1416   5.9159  1.86228672 50154"
      },
      "geometry": {
        "type": "Point",
        "coordinates": [
          -128.03178280278718,
          43.451052496153004
        ]
      }
    },
    {
      "type": "Feature",
      "properties": {
        "norad_id": 43582,
        "name": "BEIDOU-3 M6 (C24)",
        "group": "gnss",
        "lat": 23.79251892861394,
        "lon": -10.037836526992438,
        "alt_km": 21530.082082681936,
        "timestamp": "2025-12-13T22:39:29.952147+00:00",
        "meta_object_name": "BEIDOU-3 M6 (C24)",
        "meta_object_id": "2018-062B",
        "meta_epoch": "2025-12-12T15:31:04.646784",
        "meta_mean_motion": 1.86229838,
        "meta_eccentricity": 0.00078852,
        "meta_inclination": 54.0888,
        "meta_ra_of_asc_node": 188.6352,
        "meta_arg_of_pericenter": 47.3846,
        "meta_mean_anomaly": 312.743,
        "meta_ephemeris_type": 0,
        "meta_classification_type": "U",
        "meta_norad_cat_id": 43582,
        "meta_element_set_no": 999,
        "meta_rev_at_epoch": 5016,
        "meta_bstar": 0,
        "meta_mean_motion_dot": 8.5e-07,
        "meta_mean_motion_ddot": 0,
        "tle_line1": "1 43582U 18062B   25346.64658156  .00000085  00000+0  00000+0 0  9991",
        "tle_line2": "2 43582  54.0888 188.6352 0007885  47.3846 312.7430  1.86229838 50169"
      },
      "geometry": {
        "type": "Point",
        "coordinates": [
          -10.037836526992438,
          23.79251892861394
        ]
      }
    },
    {
      "type": "Feature",
      "properties": {
        "norad_id": 43602,
        "name": "BEIDOU-3 M12 (C26)",
        "group": "gnss",
        "lat": -9.508819094579685,
        "lon": 14.276959302984144,
        "alt_km": 21552.12885069573,
        "timestamp": "2025-12-13T22:39:29.952162+00:00",
        "meta_object_name": "BEIDOU-3 M12 (C26)",
        "meta_object_id": "2018-067A",
        "meta_epoch": "2025-12-11T12:15:06.004224",
        "meta_mean_motion": 1.86227612,
        "meta_eccentricity": 0.00091491,
        "meta_inclination": 54.1831,
        "meta_ra_of_asc_node": 187.4051,
        "meta_arg_of_pericenter": 41.0073,
        "meta_mean_anomaly": 319.1184,
        "meta_ephemeris_type": 0,
        "meta_classification_type": "U",
        "meta_norad_cat_id": 43602,
        "meta_element_set_no": 999,
        "meta_rev_at_epoch": 4962,
        "meta_bstar": 0,
        "meta_mean_motion_dot": 7.1e-07,
        "meta_mean_motion_ddot": 0,
        "tle_line1": "1 43602U 18067A   25345.51048616  .00000071  00000+0  00000+0 0  9993",
        "tle_line2": "2 43602  54.1831 187.4051 0009149  41.0073 319.1184  1.86227612 49626"
      },
      "geometry": {
        "type": "Point",
        "coordinates": [
          14.276959302984144,
          -9.508819094579685
        ]
      }
    },
    {
      "type": "Feature",
      "properties": {
        "norad_id": 43603,
        "name": "BEIDOU-3 M11 (C25)",
        "group": "gnss",
        "lat": 52.58631624709053,
        "lon": -63.49605211688577,
        "alt_km": 21515.57655544498,
        "timestamp": "2025-12-13T22:39:29.952193+00:00",
        "meta_object_name": "BEIDOU-3 M11 (C25)",
        "meta_object_id": "2018-067B",
        "meta_epoch": "2025-12-12T04:22:00.818688",
        "meta_mean_motion": 1.86227161,
        "meta_eccentricity": 0.00055795,
        "meta_inclination": 54.1804,
        "meta_ra_of_asc_node": 187.3462,
        "meta_arg_of_pericenter": 36.7716,
        "meta_mean_anomaly": 323.3248,
        "meta_ephemeris_type": 0,
        "meta_classification_type": "U",
        "meta_norad_cat_id": 43603,
        "meta_element_set_no": 999,
        "meta_rev_at_epoch": 4966,
        "meta_bstar": 0,
        "meta_mean_motion_dot": 8e-07,
        "meta_mean_motion_ddot": 0,
        "tle_line1": "1 43603U 18067B   25346.18195392  .00000080  00000+0  00000+0 0  9992",
        "tle_line2": "2 43603  54.1804 187.3462 0005579  36.7716 323.3248  1.86227161 49661"
      },
      "geometry": {
        "type": "Point",
        "coordinates": [
          -63.49605211688577,
          52.58631624709053
        ]
      }
    },
    {
      "type": "Feature",
      "properties": {
        "norad_id": 43622,
        "name": "BEIDOU-3 M13 (C32)",
        "group": "gnss",
        "lat": 39.30577746299283,
        "lon": -144.05153491413984,
        "alt_km": 21539.372278035247,
        "timestamp": "2025-12-13T22:39:29.952220+00:00",
        "meta_object_name": "BEIDOU-3 M13 (C32)",
        "meta_object_id": "2018-072A",
        "meta_epoch": "2025-12-12T16:12:36.163584",
        "meta_mean_motion": 1.8623072,
        "meta_eccentricity": 0.0005872,
        "meta_inclination": 56.4592,
        "meta_ra_of_asc_node": 68.8222,
        "meta_arg_of_pericenter": 298.9421,
        "meta_mean_anomaly": 61.0187,
        "meta_ephemeris_type": 0,
        "meta_classification_type": "U",
        "meta_norad_cat_id": 43622,
        "meta_element_set_no": 999,
        "meta_rev_at_epoch": 4918,
        "meta_bstar": 0,
        "meta_mean_motion_dot": -7.4e-07,
        "meta_mean_motion_ddot": 0,
        "tle_line1": "1 43622U 18072A   25346.67541856 -.00000074  00000+0  00000+0 0  9997",
        "tle_line2": "2 43622  56.4592  68.8222 0005872 298.9421  61.0187  1.86230720 49189"
      },
      "geometry": {
        "type": "Point",
        "coordinates": [
          -144.05153491413984,
          39.30577746299283
        ]
      }
    },
    {
      "type": "Feature",
      "properties": {
        "norad_id": 43623,
        "name": "BEIDOU-3 M14 (C33)",
        "group": "gnss",
        "lat": -32.98856008727608,
        "lon": -85.75458828735702,
        "alt_km": 21535.94808457589,
        "timestamp": "2025-12-13T22:39:29.952233+00:00",
        "meta_object_name": "BEIDOU-3 M14 (C33)",
        "meta_object_id": "2018-072B",
        "meta_epoch": "2025-12-12T00:05:39.634080",
        "meta_mean_motion": 1.86230719,
        "meta_eccentricity": 0.00032787,
        "meta_inclination": 56.4604,
        "meta_ra_of_asc_node": 68.8385,
        "meta_arg_of_pericenter": 334.6213,
        "meta_mean_anomaly": 25.3832,
        "meta_ephemeris_type": 0,
        "meta_classification_type": "U",
        "meta_norad_cat_id": 43623,
        "meta_element_set_no": 999,
        "meta_rev_at_epoch": 4916,
        "meta_bstar": 0,
        "meta_mean_motion_dot": -6.8e-07,
        "meta_mean_motion_ddot": 0,
        "tle_line1": "1 43623U 18072B   25346.00393095 -.00000068  00000+0  00000+0 0  9998",
        "tle_line2": "2 43623  56.4604  68.8385 0003278 334.6213  25.3832  1.86230719 49165"
      },
      "geometry": {
        "type": "Point",
        "coordinates": [
          -85.75458828735702,
          -32.98856008727608
        ]
      }
    }
  ]
}